[{"OBJECT_NAME":"STARLINK-5584","OBJECT_ID":"2023-028AE","EPOCH":"2026-03-09T18:28:02.981280","MEAN_MOTION":14.98332641,"ECCENTRICITY":0.00029082,"INCLINATION":69.9998,"RA_OF_ASC_NODE":224.3096,"ARG_OF_PERICENTER":269.8174,"MEAN_ANOMALY":90.2652,"EPHEMERIS_TYPE":0,"CLASSIFICATION_TYPE":"U","NORAD_CAT_ID":55769,"ELEMENT_SET_NO":999,"REV_AT_EPOCH":16654,"BSTAR":2.8940536e-5,"MEAN_MOTION_DOT":2.52e-6,"MEAN_MOTION_DDOT":0},{"OBJECT_NAME":"SL-16 DEB","OBJECT_ID":"1992-093LA","EPOCH":"2026-02-20T04:21:44.148672","MEAN_MOTION":14.94798833,"ECCENTRICITY":0.00217312,"INCLINATION":71.2188,"RA_OF_ASC_NODE":0.2564,"ARG_OF_PERICENTER":24.1632,"MEAN_ANOMALY":336.0549,"EPHEMERIS_TYPE":0,"CLASSIFICATION_TYPE":"U","NORAD_CAT_ID":39848,"ELEMENT_SET_NO":999,"REV_AT_EPOCH":60757,"BSTAR":0.0046757079,"MEAN_MOTION_DOT":0.00051467,"MEAN_MOTION_DDOT":0}]
